{"fetched_at":"2026-07-20T07:40:13.168Z","source":"https://celestrak.org/NORAD/elements/gp.php?GROUP=globalstar&FORMAT=JSON","constellation":"globalstar","records":[{"OBJECT_NAME":"GLOBALSTAR M080","OBJECT_ID":"2011-080B","EPOCH":"2026-07-19T17:31:47.201952","CLASSIFICATION_TYPE":"U","MEAN_MOTION":12.62257617,"ECCENTRICITY":0.0000301,"INCLINATION":52.0062,"RA_OF_ASC_NODE":279.9415,"ARG_OF_PERICENTER":72.9351,"MEAN_ANOMALY":102.9898,"EPHEMERIS_TYPE":0,"NORAD_CAT_ID":38041,"ELEMENT_SET_NO":999,"REV_AT_EPOCH":67299,"BSTAR":0.000089597,"MEAN_MOTION_DOT":-8.8e-7,"MEAN_MOTION_DDOT":0},{"OBJECT_NAME":"GLOBALSTAR M082","OBJECT_ID":"2011-080C","EPOCH":"2026-07-19T19:46:35.842944","CLASSIFICATION_TYPE":"U","MEAN_MOTION":12.62264337,"ECCENTRICITY":0.0000194,"INCLINATION":52.0053,"RA_OF_ASC_NODE":235.1599,"ARG_OF_PERICENTER":61.6484,"MEAN_ANOMALY":109.9483,"EPHEMERIS_TYPE":0,"NORAD_CAT_ID":38042,"ELEMENT_SET_NO":999,"REV_AT_EPOCH":67371,"BSTAR":0.000010297,"MEAN_MOTION_DOT":-0.00000102,"MEAN_MOTION_DDOT":0},{"OBJECT_NAME":"GLOBALSTAR M092","OBJECT_ID":"2011-080D","EPOCH":"2026-07-19T19:06:29.831040","CLASSIFICATION_TYPE":"U","MEAN_MOTION":12.62267908,"ECCENTRICITY":0.0000747,"INCLINATION":52.0106,"RA_OF_ASC_NODE":325.6424,"ARG_OF_PERICENTER":110.4925,"MEAN_ANOMALY":53.9144,"EPHEMERIS_TYPE":0,"NORAD_CAT_ID":38043,"ELEMENT_SET_NO":999,"REV_AT_EPOCH":67216,"BSTAR":0.00011237,"MEAN_MOTION_DOT":-8.4e-7,"MEAN_MOTION_DDOT":0},{"OBJECT_NAME":"GLOBALSTAR M090","OBJECT_ID":"2011-080E","EPOCH":"2026-07-19T06:37:50.555712","CLASSIFICATION_TYPE":"U","MEAN_MOTION":12.62269627,"ECCENTRICITY":0.00003901,"INCLINATION":52.0097,"RA_OF_ASC_NODE":230.7931,"ARG_OF_PERICENTER":84.5649,"MEAN_ANOMALY":355.6327,"EPHEMERIS_TYPE":0,"NORAD_CAT_ID":38044,"ELEMENT_SET_NO":999,"REV_AT_EPOCH":67376,"BSTAR":0.000030166293,"MEAN_MOTION_DOT":-9.8e-7,"MEAN_MOTION_DDOT":0},{"OBJECT_NAME":"GLOBALSTAR M086","OBJECT_ID":"2011-080F","EPOCH":"2026-07-19T08:41:01.097664","CLASSIFICATION_TYPE":"U","MEAN_MOTION":12.62287883,"ECCENTRICITY":0.0001434,"INCLINATION":51.9874,"RA_OF_ASC_NODE":230.4091,"ARG_OF_PERICENTER":117.6917,"MEAN_ANOMALY":255.3965,"EPHEMERIS_TYPE":0,"NORAD_CAT_ID":38045,"ELEMENT_SET_NO":999,"REV_AT_EPOCH":67372,"BSTAR":-0.000014247227,"MEAN_MOTION_DOT":-0.00000106,"MEAN_MOTION_DDOT":0},{"OBJECT_NAME":"GLOBALSTAR M097","OBJECT_ID":"2013-005A","EPOCH":"2026-07-19T20:46:52.793184","CLASSIFICATION_TYPE":"U","MEAN_MOTION":12.62271285,"ECCENTRICITY":0.0000532,"INCLINATION":52.0032,"RA_OF_ASC_NODE":143.8578,"ARG_OF_PERICENTER":44.8817,"MEAN_ANOMALY":315.2093,"EPHEMERIS_TYPE":0,"NORAD_CAT_ID":39072,"ELEMENT_SET_NO":999,"REV_AT_EPOCH":62103,"BSTAR":0.000016628,"MEAN_MOTION_DOT":-0.00000101,"MEAN_MOTION_DDOT":0},{"OBJECT_NAME":"GLOBALSTAR M093","OBJECT_ID":"2013-005B","EPOCH":"2026-07-19T20:08:21.907680","CLASSIFICATION_TYPE":"U","MEAN_MOTION":12.62266369,"ECCENTRICITY":0.0000758,"INCLINATION":52.0097,"RA_OF_ASC_NODE":137.299,"ARG_OF_PERICENTER":50.9879,"MEAN_ANOMALY":309.1055,"EPHEMERIS_TYPE":0,"NORAD_CAT_ID":39073,"ELEMENT_SET_NO":999,"REV_AT_EPOCH":62098,"BSTAR":0.000087268,"MEAN_MOTION_DOT":-8.8e-7,"MEAN_MOTION_DDOT":0},{"OBJECT_NAME":"GLOBALSTAR M094","OBJECT_ID":"2013-005C","EPOCH":"2026-07-19T20:08:09.771072","CLASSIFICATION_TYPE":"U","MEAN_MOTION":12.62264286,"ECCENTRICITY":0.0001037,"INCLINATION":51.9969,"RA_OF_ASC_NODE":51.3842,"ARG_OF_PERICENTER":70.2672,"MEAN_ANOMALY":289.8306,"EPHEMERIS_TYPE":0,"NORAD_CAT_ID":39074,"ELEMENT_SET_NO":999,"REV_AT_EPOCH":62259,"BSTAR":0.000035681,"MEAN_MOTION_DOT":-9.7e-7,"MEAN_MOTION_DDOT":0},{"OBJECT_NAME":"GLOBALSTAR M096","OBJECT_ID":"2013-005D","EPOCH":"2026-07-19T16:39:35.222688","CLASSIFICATION_TYPE":"U","MEAN_MOTION":12.62265817,"ECCENTRICITY":0.0000819,"INCLINATION":52.0075,"RA_OF_ASC_NODE":100.6523,"ARG_OF_PERICENTER":50.8016,"MEAN_ANOMALY":309.2924,"EPHEMERIS_TYPE":0,"NORAD_CAT_ID":39075,"ELEMENT_SET_NO":999,"REV_AT_EPOCH":62149,"BSTAR":0.00010589,"MEAN_MOTION_DOT":-8.5e-7,"MEAN_MOTION_DDOT":0},{"OBJECT_NAME":"GLOBALSTAR M078","OBJECT_ID":"2013-005E","EPOCH":"2026-07-19T16:00:54.717408","CLASSIFICATION_TYPE":"U","MEAN_MOTION":12.62260097,"ECCENTRICITY":0.0000945,"INCLINATION":51.9846,"RA_OF_ASC_NODE":184.6993,"ARG_OF_PERICENTER":351.1824,"MEAN_ANOMALY":8.9026,"EPHEMERIS_TYPE":0,"NORAD_CAT_ID":39076,"ELEMENT_SET_NO":999,"REV_AT_EPOCH":62011,"BSTAR":-0.000042857,"MEAN_MOTION_DOT":-0.00000111,"MEAN_MOTION_DDOT":0},{"OBJECT_NAME":"GLOBALSTAR M095","OBJECT_ID":"2013-005F","EPOCH":"2026-07-19T09:03:12.930336","CLASSIFICATION_TYPE":"U","MEAN_MOTION":12.62264091,"ECCENTRICITY":0.00005518,"INCLINATION":52.0053,"RA_OF_ASC_NODE":183.2316,"ARG_OF_PERICENTER":19.9475,"MEAN_ANOMALY":340.1413,"EPHEMERIS_TYPE":0,"NORAD_CAT_ID":39077,"ELEMENT_SET_NO":999,"REV_AT_EPOCH":61993,"BSTAR":-0.000046914818,"MEAN_MOTION_DOT":-0.00000112,"MEAN_MOTION_DDOT":0},{"OBJECT_NAME":"GLOBALSTAR M087","OBJECT_ID":"2022-064A","EPOCH":"2026-07-19T18:52:11.682048","CLASSIFICATION_TYPE":"U","MEAN_MOTION":12.6226943,"ECCENTRICITY":0.000091,"INCLINATION":52.0016,"RA_OF_ASC_NODE":323.2073,"ARG_OF_PERICENTER":90.2315,"MEAN_ANOMALY":269.8656,"EPHEMERIS_TYPE":0,"NORAD_CAT_ID":52888,"ELEMENT_SET_NO":999,"REV_AT_EPOCH":19525,"BSTAR":0.00010217,"MEAN_MOTION_DOT":-8.5e-7,"MEAN_MOTION_DDOT":0}]}
